[{"OBJECT_NAME":"STARLINK-32756","OBJECT_ID":"2025-014T","EPOCH":"2026-03-09T22:58:13.856448","MEAN_MOTION":15.2762737,"ECCENTRICITY":0.00010816,"INCLINATION":42.9997,"RA_OF_ASC_NODE":153.2736,"ARG_OF_PERICENTER":273.9644,"MEAN_ANOMALY":86.1084,"EPHEMERIS_TYPE":0,"CLASSIFICATION_TYPE":"U","NORAD_CAT_ID":62752,"ELEMENT_SET_NO":999,"REV_AT_EPOCH":6329,"BSTAR":0.0011104459,"MEAN_MOTION_DOT":0.00030465,"MEAN_MOTION_DDOT":0},{"OBJECT_NAME":"OBJECT BD","OBJECT_ID":"2025-313BD","EPOCH":"2026-03-09T15:06:44.992224","MEAN_MOTION":15.3000236,"ECCENTRICITY":0.00072867,"INCLINATION":97.397,"RA_OF_ASC_NODE":145.285,"ARG_OF_PERICENTER":333.4514,"MEAN_ANOMALY":26.6352,"EPHEMERIS_TYPE":0,"CLASSIFICATION_TYPE":"U","NORAD_CAT_ID":67299,"ELEMENT_SET_NO":999,"REV_AT_EPOCH":1083,"BSTAR":0.0027633805,"MEAN_MOTION_DOT":0.0008101,"MEAN_MOTION_DDOT":0}]
